MTI                     
1 26102U 00014A   20118.93434338  .00004175  00000-0  62750-4 0  9996
2 26102  97.5115 358.5986 0009359  58.1445 302.0705 15.55447166116669
CFESAT                  
1 30777U 07006F   20118.80022656  .00002422  00000-0  67812-4 0  9996
2 30777  35.4254 278.2394 0004069  89.2205 270.8988 15.36490655728653
SPIRALE A               
1 33751U 09008C   20118.67373041  .00000039  00000-0  15180-3 0  9999
2 33751   2.0327 260.8022 5379952 238.1623  58.4926  4.58737716158950
SPIRALE B               
1 33752U 09008D   20117.45051802  .00002523  00000-0  46717-3 0  9993
2 33752   1.8367 173.8431 6918712  40.2658 354.4843  2.75599035103362
SAPPHIRE                
1 39088U 13009C   20118.83510234 -.00000022  00000-0  74442-5 0  9990
2 39088  98.4743 321.2426 0012577  77.4596 282.7995 14.34206770375220
